{
  "type": "FeatureCollection",
  "features": [
    {
      "type": "Feature",
      "properties": {
        "norad_id": 58647,
        "name": "TIANMU-1 13",
        "group": "weather",
        "lat": 5.5788263890031855,
        "lon": -164.10350258591538,
        "alt_km": 491.6278957712966,
        "timestamp": "2025-12-21T16:47:54.372207+00:00",
        "meta_object_name": "TIANMU-1 13",
        "meta_object_id": "2023-205C",
        "meta_epoch": "2025-12-21T12:53:08.574720",
        "meta_mean_motion": 15.24625882,
        "meta_eccentricity": 0.0006355,
        "meta_inclination": 97.3609,
        "meta_ra_of_asc_node": 15.0128,
        "meta_arg_of_pericenter": 228.0459,
        "meta_mean_anomaly": 132.0238,
        "meta_ephemeris_type": 0,
        "meta_classification_type": "U",
        "meta_norad_cat_id": 58647,
        "meta_element_set_no": 999,
        "meta_rev_at_epoch": 11041,
        "meta_bstar": 0.00020801,
        "meta_mean_motion_dot": 5.064e-05,
        "meta_mean_motion_ddot": 0,
        "tle_line1": "1 58647U 23205C   25355.53690480  .00005064  00000+0  20801-3 0  9995",
        "tle_line2": "2 58647  97.3609  15.0128 0006355 228.0459 132.0238 15.24625882110411"
      },
      "geometry": {
        "type": "Point",
        "coordinates": [
          -164.10350258591538,
          5.5788263890031855
        ]
      }
    },
    {
      "type": "Feature",
      "properties": {
        "norad_id": 58648,
        "name": "TIANMU-1 14",
        "group": "weather",
        "lat": -81.03771994550257,
        "lon": 139.5356044878863,
        "alt_km": 495.14519582638695,
        "timestamp": "2025-12-21T16:47:54.372217+00:00",
        "meta_object_name": "TIANMU-1 14",
        "meta_object_id": "2023-205D",
        "meta_epoch": "2025-12-21T12:29:22.599744",
        "meta_mean_motion": 15.24609021,
        "meta_eccentricity": 0.0007095,
        "meta_inclination": 97.3541,
        "meta_ra_of_asc_node": 14.3372,
        "meta_arg_of_pericenter": 234.4454,
        "meta_mean_anomaly": 125.6123,
        "meta_ephemeris_type": 0,
        "meta_classification_type": "U",
        "meta_norad_cat_id": 58648,
        "meta_element_set_no": 999,
        "meta_rev_at_epoch": 11041,
        "meta_bstar": 0.00020356,
        "meta_mean_motion_dot": 4.952e-05,
        "meta_mean_motion_ddot": 0,
        "tle_line1": "1 58648U 23205D   25355.52040046  .00004952  00000+0  20356-3 0  9992",
        "tle_line2": "2 58648  97.3541  14.3372 0007095 234.4454 125.6123 15.24609021110416"
      },
      "geometry": {
        "type": "Point",
        "coordinates": [
          139.5356044878863,
          -81.03771994550257
        ]
      }
    },
    {
      "type": "Feature",
      "properties": {
        "norad_id": 58660,
        "name": "TIANMU-1 19",
        "group": "weather",
        "lat": -82.35832879936335,
        "lon": -150.16643055439437,
        "alt_km": 487.3467503188931,
        "timestamp": "2025-12-21T16:47:54.372227+00:00",
        "meta_object_name": "TIANMU-1 19",
        "meta_object_id": "2023-208A",
        "meta_epoch": "2025-12-21T12:29:04.000416",
        "meta_mean_motion": 15.27996532,
        "meta_eccentricity": 0.0004558,
        "meta_inclination": 97.4395,
        "meta_ra_of_asc_node": 106.5409,
        "meta_arg_of_pericenter": 214.4016,
        "meta_mean_anomaly": 145.6929,
        "meta_ephemeris_type": 0,
        "meta_classification_type": "U",
        "meta_norad_cat_id": 58660,
        "meta_element_set_no": 999,
        "meta_rev_at_epoch": 11016,
        "meta_bstar": 0.00027966,
        "meta_mean_motion_dot": 7.566e-05,
        "meta_mean_motion_ddot": 0,
        "tle_line1": "1 58660U 23208A   25355.52018519  .00007566  00000+0  27966-3 0  9997",
        "tle_line2": "2 58660  97.4395 106.5409 0004558 214.4016 145.6929 15.27996532110163"
      },
      "geometry": {
        "type": "Point",
        "coordinates": [
          -150.16643055439437,
          -82.35832879936335
        ]
      }
    },
    {
      "type": "Feature",
      "properties": {
        "norad_id": 58661,
        "name": "TIANMU-1 20",
        "group": "weather",
        "lat": 20.54050175213408,
        "lon": 104.3727185803803,
        "alt_km": 482.33459501953257,
        "timestamp": "2025-12-21T16:47:54.372237+00:00",
        "meta_object_name": "TIANMU-1 20",
        "meta_object_id": "2023-208B",
        "meta_epoch": "2025-12-21T13:34:01.391232",
        "meta_mean_motion": 15.29187896,
        "meta_eccentricity": 0.0006618,
        "meta_inclination": 97.4333,
        "meta_ra_of_asc_node": 107.0422,
        "meta_arg_of_pericenter": 228.9692,
        "meta_mean_anomaly": 131.0976,
        "meta_ephemeris_type": 0,
        "meta_classification_type": "U",
        "meta_norad_cat_id": 58661,
        "meta_element_set_no": 999,
        "meta_rev_at_epoch": 11024,
        "meta_bstar": 0.00026188,
        "meta_mean_motion_dot": 7.346e-05,
        "meta_mean_motion_ddot": 0,
        "tle_line1": "1 58661U 23208B   25355.56529388  .00007346  00000+0  26188-3 0  9994",
        "tle_line2": "2 58661  97.4333 107.0422 0006618 228.9692 131.0976 15.29187896110243"
      },
      "geometry": {
        "type": "Point",
        "coordinates": [
          104.3727185803803,
          20.54050175213408
        ]
      }
    },
    {
      "type": "Feature",
      "properties": {
        "norad_id": 58662,
        "name": "TIANMU-1 21",
        "group": "weather",
        "lat": 71.6723839475936,
        "lon": -47.645853017075595,
        "alt_km": 465.6419181725141,
        "timestamp": "2025-12-21T16:47:54.372251+00:00",
        "meta_object_name": "TIANMU-1 21",
        "meta_object_id": "2023-208C",
        "meta_epoch": "2025-12-21T13:11:51.949248",
        "meta_mean_motion": 15.31724272,
        "meta_eccentricity": 0.0006254,
        "meta_inclination": 97.4382,
        "meta_ra_of_asc_node": 108.9748,
        "meta_arg_of_pericenter": 223.2282,
        "meta_mean_anomaly": 136.8469,
        "meta_ephemeris_type": 0,
        "meta_classification_type": "U",
        "meta_norad_cat_id": 58662,
        "meta_element_set_no": 999,
        "meta_rev_at_epoch": 11034,
        "meta_bstar": 0.00029149,
        "meta_mean_motion_dot": 8.856e-05,
        "meta_mean_motion_ddot": 0,
        "tle_line1": "1 58662U 23208C   25355.54990682  .00008856  00000+0  29149-3 0  9999",
        "tle_line2": "2 58662  97.4382 108.9748 0006254 223.2282 136.8469 15.31724272110347"
      },
      "geometry": {
        "type": "Point",
        "coordinates": [
          -47.645853017075595,
          71.6723839475936
        ]
      }
    },
    {
      "type": "Feature",
      "properties": {
        "norad_id": 58663,
        "name": "TIANMU-1 22",
        "group": "weather",
        "lat": -78.61931327295976,
        "lon": -113.70067611125273,
        "alt_km": 488.1298684587082,
        "timestamp": "2025-12-21T16:47:54.372261+00:00",
        "meta_object_name": "TIANMU-1 22",
        "meta_object_id": "2023-208D",
        "meta_epoch": "2025-12-21T12:30:49.726368",
        "meta_mean_motion": 15.2774058,
        "meta_eccentricity": 0.0002801,
        "meta_inclination": 97.4389,
        "meta_ra_of_asc_node": 106.5971,
        "meta_arg_of_pericenter": 240.4594,
        "meta_mean_anomaly": 119.6366,
        "meta_ephemeris_type": 0,
        "meta_classification_type": "U",
        "meta_norad_cat_id": 58663,
        "meta_element_set_no": 999,
        "meta_rev_at_epoch": 11017,
        "meta_bstar": 0.00026076,
        "meta_mean_motion_dot": 6.993e-05,
        "meta_mean_motion_ddot": 0,
        "tle_line1": "1 58663U 23208D   25355.52140887  .00006993  00000+0  26076-3 0  9998",
        "tle_line2": "2 58663  97.4389 106.5971 0002801 240.4594 119.6366 15.27740580110179"
      },
      "geometry": {
        "type": "Point",
        "coordinates": [
          -113.70067611125273,
          -78.61931327295976
        ]
      }
    },
    {
      "type": "Feature",
      "properties": {
        "norad_id": 58700,
        "name": "TIANMU-1 15",
        "group": "weather",
        "lat": -70.9740412933997,
        "lon": -160.52453446672382,
        "alt_km": 496.2061634557231,
        "timestamp": "2025-12-21T16:47:54.372271+00:00",
        "meta_object_name": "TIANMU-1 15",
        "meta_object_id": "2024-004A",
        "meta_epoch": "2025-12-21T12:23:23.535168",
        "meta_mean_motion": 15.24513364,
        "meta_eccentricity": 0.0005977,
        "meta_inclination": 97.4621,
        "meta_ra_of_asc_node": 176.9527,
        "meta_arg_of_pericenter": 252.7477,
        "meta_mean_anomaly": 107.3106,
        "meta_ephemeris_type": 0,
        "meta_classification_type": "U",
        "meta_norad_cat_id": 58700,
        "meta_element_set_no": 999,
        "meta_rev_at_epoch": 10868,
        "meta_bstar": 0.00023216,
        "meta_mean_motion_dot": 5.64e-05,
        "meta_mean_motion_ddot": 0,
        "tle_line1": "1 58700U 24004A   25355.51624462  .00005640  00000+0  23216-3 0  9991",
        "tle_line2": "2 58700  97.4621 176.9527 0005977 252.7477 107.3106 15.24513364108685"
      },
      "geometry": {
        "type": "Point",
        "coordinates": [
          -160.52453446672382,
          -70.9740412933997
        ]
      }
    }
  ]
}